NORAD_CAT_ID,OBJECT_NAME,OBJECT_TYPE,EPOCH,MEAN_MOTION,ECCENTRICITY,INCLINATION,RA_OF_ASC_NODE,ARG_OF_PERICENTER,MEAN_ANOMALY,BSTAR,MEAN_MOTION_DOT,MEAN_MOTION_DDOT,TLE_LINE0,TLE_LINE1,TLE_LINE2,SEMIMAJOR_AXIS,PERIOD,APOGEE,PERIGEE,DECAYED
49460.0,STARLINK-3140,PAYLOAD,2023-05-23 08:39:37,15.08839271,0.000113,53.2184,124.0389,98.6318,261.4802,-4.3315e-05,-9.77e-06,0.0,0 STARLINK-3140,1 49460U 21104BE  23143.36085016 -.00000977  00000-0 -43315-4 0  9998,2 49460  53.2184 124.0389 0001130  98.6318 261.4802 15.08839271 84587,6917.883,95.438,540.529,538.966,0.0
49460.0,STARLINK-3140,PAYLOAD,2023-05-24 05:19:38,15.0883403,0.0001094,53.2165,120.1734,93.5081,266.6037,-9.8439e-05,-1.854e-05,0.0,0 STARLINK-3140,1 49460U 21104BE  23144.22197727 -.00001854  00000-0 -98439-4 0  9999,2 49460  53.2165 120.1734 0001094  93.5081 266.6037 15.08834030 85808,6917.899,95.438,540.52,539.007,0.0
49460.0,STARLINK-3140,PAYLOAD,2023-05-26 05:01:13,15.08830745,0.0001022,53.2166,111.2524,91.8727,268.2382,0.0001089,1.445e-05,0.0,0 STARLINK-3140,1 49460U 21104BE  23146.20918793  .00001445  00000-0  10890-3 0  9991,2 49460  53.2166 111.2524 0001022  91.8727 268.2382 15.08830745 86100,6917.909,95.438,540.481,539.067,0.0
49460.0,STARLINK-3140,PAYLOAD,2023-05-27 14:24:19,15.08842396,0.0001193,53.2177,105.0071,88.2521,271.8608,-2.9988e-05,-7.65e-06,0.0,0 STARLINK-3140,1 49460U 21104BE  23147.60022910 -.00000765  00000-0 -29988-4 0  9998,2 49460  53.2177 105.0071 0001193  88.2521 271.8608 15.08842396 86310,6917.873,95.437,540.563,538.913,0.0
49460.0,STARLINK-3140,PAYLOAD,2023-05-28 04:42:48,15.08840532,0.0001194,53.2176,102.3319,84.5951,275.5177,9.7622e-05,1.266e-05,0.0,0 STARLINK-3140,1 49460U 21104BE  23148.19638958  .00001266  00000-0  97622-4 0  9993,2 49460  53.2176 102.3319 0001194  84.5951 275.5177 15.08840532 85312,6917.879,95.438,540.57,538.918,0.0
49460.0,STARLINK-3140,PAYLOAD,2023-05-29 02:58:11,15.08850668,0.0001139,53.2175,98.168,87.4134,272.6988,0.00017228,2.456e-05,0.0,0 STARLINK-3140,1 49460U 21104BE  23149.12373994  .00002456  00000-0  17228-3 0  9998,2 49460  53.2175  98.1680 0001139  87.4134 272.6988 15.08850668 86543,6917.848,95.437,540.501,538.925,0.0
49460.0,STARLINK-3140,PAYLOAD,2023-05-30 02:48:59,15.08834451,0.0001211,53.2178,93.7094,79.9759,280.137,9.4749e-06,-1.37e-06,0.0,0 STARLINK-3140,1 49460U 21104BE  23150.11735636 -.00000137  00000-0  94749-5 0  9994,2 49460  53.2178  93.7094 0001211  79.9759 280.1370 15.08834451 86693,6917.897,95.438,540.6,538.925,0.0
49460.0,STARLINK-3140,PAYLOAD,2023-05-31 02:39:45,15.08858989,0.0001187,53.2182,89.2478,80.7956,279.3171,6.2046e-05,7e-06,0.0,0 STARLINK-3140,1 49460U 21104BE  23151.11093787  .00000700  00000-0  62046-4 0  9998,2 49460  53.2182  89.2478 0001187  80.7956 279.3171 15.08858989 86843,6917.822,95.436,540.508,538.866,0.0
49460.0,STARLINK-3140,PAYLOAD,2023-05-31 20:09:00,15.08840096,0.0001295,53.2174,85.9763,73.953,286.1604,0.00015417,2.167e-05,0.0,0 STARLINK-3140,1 49460U 21104BE  23151.83959015  .00002167  00000-0  15417-3 0  9990,2 49460  53.2174  85.9763 0001295  73.9530 286.1604 15.08840096 85864,6917.88,95.438,540.641,538.849,0.0
49460.0,STARLINK-3140,PAYLOAD,2023-06-01 02:30:33,15.08842324,0.00013,53.2177,84.7872,74.5258,285.5878,0.00016386,2.321e-05,0.0,0 STARLINK-3140,1 49460U 21104BE  23152.10454926  .00002321  00000-0  16386-3 0  9990,2 49460  53.2177  84.7872 0001300  74.5258 285.5878 15.08842324 86993,6917.873,95.437,540.638,538.839,0.0
49460.0,STARLINK-3140,PAYLOAD,2023-06-02 03:56:42,15.0884634,0.0001208,53.2174,80.0309,86.611,273.502,-9.6015e-07,-3.03e-06,0.0,0 STARLINK-3140,1 49460U 21104BE  23153.16438567 -.00000303  00000-0 -96015-6 0  9990,2 49460  53.2174  80.0309 0001208  86.6110 273.5020 15.08846340 87159,6917.861,95.437,540.562,538.89,0.0
49460.0,STARLINK-3140,PAYLOAD,2023-06-03 02:12:07,15.08833716,0.0001149,53.2176,75.8692,98.6504,261.4618,2.4137e-05,9.6e-07,0.0,0 STARLINK-3140,1 49460U 21104BE  23154.09175880  .00000096  00000-0  24137-4 0  9990,2 49460  53.2176  75.8692 0001149  98.6504 261.4618 15.08833716 87299,6917.9,95.438,540.559,538.97,0.0
49460.0,STARLINK-3140,PAYLOAD,2023-06-03 03:47:31,15.08835071,0.0001164,53.2179,75.5719,90.869,269.2435,4.5931e-05,4.43e-06,0.0,0 STARLINK-3140,1 49460U 21104BE  23154.15799807  .00000443  00000-0  45931-4 0  9999,2 49460  53.2179  75.5719 0001164  90.8690 269.2435 15.08835071 86216,6917.895,95.438,540.566,538.955,0.0
49460.0,STARLINK-3140,PAYLOAD,2023-06-03 21:16:45,15.08836153,0.0001136,53.2178,72.3005,108.6433,251.4683,4.8868e-05,4.9e-06,0.0,0 STARLINK-3140,1 49460U 21104BE  23154.88663912  .00000490  00000-0  48868-4 0  9990,2 49460  53.2178  72.3005 0001136 108.6433 251.4683 15.08836153 86322,6917.892,95.438,540.543,538.971,0.0
49460.0,STARLINK-3140,PAYLOAD,2023-06-04 02:02:54,15.08841124,0.0001133,53.2178,71.4083,107.8437,252.2679,8.7224e-05,1.101e-05,0.0,0 STARLINK-3140,1 49460U 21104BE  23155.08535540  .00001101  00000-0  87224-4 0  9997,2 49460  53.2178  71.4083 0001133 107.8437 252.2679 15.08841124 87442,6917.877,95.437,540.526,538.958,0.0
49460.0,STARLINK-3140,PAYLOAD,2023-06-04 13:10:36,15.08845222,0.000127,53.2182,69.3252,104.1707,255.9427,-4.0199e-05,-9.28e-06,0.0,0 STARLINK-3140,1 49460U 21104BE  23155.54903610 -.00000928  00000-0 -40199-4 0  9993,2 49460  53.2182  69.3252 0001270 104.1707 255.9427 15.08845222 86424,6917.864,95.437,540.608,538.851,0.0
49460.0,STARLINK-3140,PAYLOAD,2023-06-04 17:56:46,15.08837207,0.0001229,53.2182,68.4343,87.3745,272.7388,0.00010434,1.373e-05,0.0,0 STARLINK-3140,1 49460U 21104BE  23155.74776038  .00001373  00000-0  10434-3 0  9998,2 49460  53.2182  68.4343 0001229  87.3745 272.7388 15.08837207 87544,6917.889,95.438,540.604,538.904,0.0
49460.0,STARLINK-3140,PAYLOAD,2023-06-05 13:01:23,15.08843131,0.000125,53.218,64.8657,93.4923,266.6212,0.00012921,1.769e-05,0.0,0 STARLINK-3140,1 49460U 21104BE  23156.54263673  .00001769  00000-0  12921-3 0  9995,2 49460  53.2180  64.8657 0001250  93.4923 266.6212 15.08843131 86573,6917.871,95.437,540.601,538.871,0.0
49460.0,STARLINK-3140,PAYLOAD,2023-06-05 19:22:56,15.08841757,0.0001267,53.2181,63.6759,95.3308,264.7829,5.2398e-05,5.46e-06,0.0,0 STARLINK-3140,1 49460U 21104BE  23156.80759963  .00000546  00000-0  52398-4 0  9991,2 49460  53.2181  63.6759 0001267  95.3308 264.7829 15.08841757 86610,6917.875,95.437,540.617,538.864,0.0
49460.0,STARLINK-3140,PAYLOAD,2023-06-06 00:09:05,15.08860039,0.0001196,53.2182,62.784,94.0143,266.0986,-8.7443e-05,-1.68e-05,0.0,0 STARLINK-3140,1 49460U 21104BE  23157.00631059 -.00001680  00000-0 -87443-4 0  9990,2 49460  53.2182  62.7840 0001196  94.0143 266.0986 15.08860039 87733,6917.819,95.436,540.512,538.857,0.0
49460.0,STARLINK-3140,PAYLOAD,2023-06-06 12:52:10,15.08843973,0.0001124,53.2186,60.4057,96.2478,263.8642,8.9428e-05,1.136e-05,0.0,0 STARLINK-3140,1 49460U 21104BE  23157.53623520  .00001136  00000-0  89428-4 0  9991,2 49460  53.2186  60.4057 0001124  96.2478 263.8642 15.08843973 86728,6917.868,95.437,540.511,538.956,0.0
49460.0,STARLINK-3140,PAYLOAD,2023-06-06 17:38:20,15.08839901,0.0001063,53.2187,59.5143,90.1148,269.9966,3.0858e-05,2.03e-06,0.0,0 STARLINK-3140,1 49460U 21104BE  23157.73495919  .00000203  00000-0  30858-4 0  9999,2 49460  53.2187  59.5143 0001063  90.1148 269.9966 15.08839901 87849,6917.881,95.438,540.481,539.01,0.0
49460.0,STARLINK-3140,PAYLOAD,2023-06-06 19:13:43,15.08840083,0.0001055,53.2188,59.2171,89.91,270.2013,2.9801e-05,1.87e-06,0.0,0 STARLINK-3140,1 49460U 21104BE  23157.80119916  .00000187  00000-0  29801-4 0  9994,2 49460  53.2188  59.2171 0001055  89.9100 270.2013 15.08840083 86764,6917.88,95.438,540.475,539.015,0.0
49460.0,STARLINK-3140,PAYLOAD,2023-06-07 03:10:38,15.08847979,0.0001247,53.218,57.7288,97.2013,262.9121,6.5595e-05,7.56e-06,0.0,0 STARLINK-3140,1 49460U 21104BE  23158.13239188  .00000756  00000-0  65595-4 0  9997,2 49460  53.2180  57.7288 0001247  97.2013 262.9121 15.08847979 87902,6917.856,95.437,540.584,538.858,0.0
49460.0,STARLINK-3140,PAYLOAD,2023-06-07 20:39:54,15.08831728,0.0001299,53.2187,54.4544,120.7593,239.3527,-3.8176e-05,-8.95e-06,0.0,0 STARLINK-3140,1 49460U 21104BE  23158.86104515 -.00000895  00000-0 -38176-4 0  9993,2 49460  53.2187  54.4544 0001299 120.7593 239.3527 15.08831728 86924,6917.906,95.438,540.669,538.872,0.0
49460.0,STARLINK-3140,PAYLOAD,2023-06-07 23:50:40,15.08833986,0.0001122,53.2188,53.8652,94.787,265.325,1.3513e-05,-7.3e-07,0.0,0 STARLINK-3140,1 49460U 21104BE  23158.99352416 -.00000073  00000-0  13513-4 0  9997,2 49460  53.2188  53.8652 0001122  94.7870 265.3250 15.08833986 88035,6917.899,95.438,540.54,538.988,0.0
49460.0,STARLINK-3140,PAYLOAD,2023-06-08 23:41:27,15.08840252,0.0001097,53.2187,49.4046,100.9202,259.1913,0.00010547,1.391e-05,0.0,0 STARLINK-3140,1 49460U 21104BE  23159.98712003  .00001391  00000-0  10547-3 0  9995,2 49460  53.2187  49.4046 0001097 100.9202 259.1913 15.08840252 88189,6917.88,95.438,540.504,538.986,0.0
49460.0,STARLINK-3140,PAYLOAD,2023-06-09 09:13:45,15.08843449,0.0001131,53.2187,47.62,110.2508,249.8606,6.8763e-05,8.07e-06,0.0,0 STARLINK-3140,1 49460U 21104BE  23160.38455879  .00000807  00000-0  68763-4 0  9991,2 49460  53.2187  47.6200 0001131 110.2508 249.8606 15.08843449 87155,6917.87,95.437,540.517,538.952,0.0
49460.0,STARLINK-3140,PAYLOAD,2023-06-09 17:10:42,15.08834772,0.0001258,53.2193,46.1359,104.0778,256.0354,7.3322e-05,8.79e-06,0.0,0 STARLINK-3140,1 49460U 21104BE  23160.71576687  .00000879  00000-0  73322-4 0  9995,2 49460  53.2193  46.1359 0001258 104.0778 256.0354 15.08834772 88296,6917.896,95.438,540.632,538.891,0.0
49460.0,STARLINK-3140,PAYLOAD,2023-06-10 09:04:33,15.08837886,0.0001201,53.2193,43.1616,102.8363,257.2763,6.8357e-05,8e-06,0.0,0 STARLINK-3140,1 49460U 21104BE  23161.37816723  .00000800  00000-0  68357-4 0  9992,2 49460  53.2193  43.1616 0001201 102.8363 257.2763 15.08837886 87300,6917.887,95.438,540.583,538.921,0.0
